{
  "links" : {
    "next" : "https://api.nasa.gov/neo/rest/v1/feed?start_date=2006-06-16&end_date=2006-06-16&detailed=true&api_key=t0TVs3DtDT2H8Oy2Zy8m2eVrNsAVKAexjcZXUckd",
    "prev" : "https://api.nasa.gov/neo/rest/v1/feed?start_date=2006-06-14&end_date=2006-06-14&detailed=true&api_key=t0TVs3DtDT2H8Oy2Zy8m2eVrNsAVKAexjcZXUckd",
    "self" : "https://api.nasa.gov/neo/rest/v1/feed?start_date=2006-06-15&end_date=2006-06-15&detailed=true&api_key=t0TVs3DtDT2H8Oy2Zy8m2eVrNsAVKAexjcZXUckd"
  },
  "element_count" : 7,
  "near_earth_objects" : {
    "2006-06-15" : [ {
      "links" : {
        "self" : "https://api.nasa.gov/neo/rest/v1/neo/3335048?api_key=t0TVs3DtDT2H8Oy2Zy8m2eVrNsAVKAexjcZXUckd"
      },
      "neo_reference_id" : "3335048",
      "name" : "(2006 KM89)",
      "nasa_jpl_url" : "http://ssd.jpl.nasa.gov/sbdb.cgi?sstr=3335048",
      "absolute_magnitude_h" : 23.6,
      "estimated_diameter" : {
        "kilometers" : {
          "estimated_diameter_min" : 0.0506471459,
          "estimated_diameter_max" : 0.1132504611
        },
        "meters" : {
          "estimated_diameter_min" : 50.6471458835,
          "estimated_diameter_max" : 113.2504610618
        },
        "miles" : {
          "estimated_diameter_min" : 0.0314706677,
          "estimated_diameter_max" : 0.0703705522
        },
        "feet" : {
          "estimated_diameter_min" : 166.1651821003,
          "estimated_diameter_max" : 371.5566426699
        }
      },
      "is_potentially_hazardous_asteroid" : false,
      "close_approach_data" : [ {
        "close_approach_date" : "2006-06-15",
        "epoch_date_close_approach" : 1150354800000,
        "relative_velocity" : {
          "kilometers_per_second" : "2.4186471326",
          "kilometers_per_hour" : "8707.1296773965",
          "miles_per_hour" : "5410.2717709356"
        },
        "miss_distance" : {
          "astronomical" : "0.1477906439",
          "lunar" : "57.4905586243",
          "kilometers" : "22109166",
          "miles" : "13737998"
        },
        "orbiting_body" : "Earth"
      } ],
      "orbital_data" : {
        "orbit_id" : "11",
        "orbit_determination_date" : "2017-04-06 09:08:32",
        "orbit_uncertainty" : "8",
        "minimum_orbit_intersection" : ".146376",
        "jupiter_tisserand_invariant" : "4.319",
        "epoch_osculation" : "2453891.5",
        "eccentricity" : ".2753499496903253",
        "semi_major_axis" : "1.598449261483705",
        "inclination" : "3.049703033447192",
        "ascending_node_longitude" : "118.4279982626059",
        "orbital_period" : "738.1535450375504",
        "perihelion_distance" : "1.158316337751629",
        "perihelion_argument" : "143.5024101606541",
        "aphelion_distance" : "2.038582185215781",
        "perihelion_time" : "2453900.707676090827",
        "mean_anomaly" : "355.5093849850317",
        "mean_motion" : ".4877034086203387",
        "equinox" : "J2000"
      }
    }, {
      "links" : {
        "self" : "https://api.nasa.gov/neo/rest/v1/neo/3335613?api_key=t0TVs3DtDT2H8Oy2Zy8m2eVrNsAVKAexjcZXUckd"
      },
      "neo_reference_id" : "3335613",
      "name" : "(2006 LD1)",
      "nasa_jpl_url" : "http://ssd.jpl.nasa.gov/sbdb.cgi?sstr=3335613",
      "absolute_magnitude_h" : 20.9,
      "estimated_diameter" : {
        "kilometers" : {
          "estimated_diameter_min" : 0.1756123185,
          "estimated_diameter_max" : 0.3926810818
        },
        "meters" : {
          "estimated_diameter_min" : 175.6123184804,
          "estimated_diameter_max" : 392.6810818086
        },
        "miles" : {
          "estimated_diameter_min" : 0.1091204019,
          "estimated_diameter_max" : 0.2440006365
        },
        "feet" : {
          "estimated_diameter_min" : 576.1559189633,
          "estimated_diameter_max" : 1288.3238004408
        }
      },
      "is_potentially_hazardous_asteroid" : true,
      "close_approach_data" : [ {
        "close_approach_date" : "2006-06-15",
        "epoch_date_close_approach" : 1150354800000,
        "relative_velocity" : {
          "kilometers_per_second" : "19.6214911016",
          "kilometers_per_hour" : "70637.3679656549",
          "miles_per_hour" : "43891.3134451037"
        },
        "miss_distance" : {
          "astronomical" : "0.0393927941",
          "lunar" : "15.323797226",
          "kilometers" : "5893078.5",
          "miles" : "3661789.25"
        },
        "orbiting_body" : "Earth"
      } ],
      "orbital_data" : {
        "orbit_id" : "10",
        "orbit_determination_date" : "2017-04-06 09:08:29",
        "orbit_uncertainty" : "8",
        "minimum_orbit_intersection" : ".0225783",
        "jupiter_tisserand_invariant" : "3.184",
        "epoch_osculation" : "2453896.5",
        "eccentricity" : ".6985874910238739",
        "semi_major_axis" : "2.332295291538348",
        "inclination" : "5.962256008074835",
        "ascending_node_longitude" : "66.9002609110395",
        "orbital_period" : "1300.989316293063",
        "perihelion_distance" : ".7029829754957791",
        "perihelion_argument" : "274.544612004367",
        "aphelion_distance" : "3.961607607580917",
        "perihelion_time" : "2453947.837785818619",
        "mean_anomaly" : "345.7941931857189",
        "mean_motion" : ".2767124952461222",
        "equinox" : "J2000"
      }
    }, {
      "links" : {
        "self" : "https://api.nasa.gov/neo/rest/v1/neo/2418849?api_key=t0TVs3DtDT2H8Oy2Zy8m2eVrNsAVKAexjcZXUckd"
      },
      "neo_reference_id" : "2418849",
      "name" : "418849 (2008 WM64)",
      "nasa_jpl_url" : "http://ssd.jpl.nasa.gov/sbdb.cgi?sstr=2418849",
      "absolute_magnitude_h" : 20.7,
      "estimated_diameter" : {
        "kilometers" : {
          "estimated_diameter_min" : 0.1925550782,
          "estimated_diameter_max" : 0.4305662442
        },
        "meters" : {
          "estimated_diameter_min" : 192.5550781879,
          "estimated_diameter_max" : 430.566244241
        },
        "miles" : {
          "estimated_diameter_min" : 0.1196481415,
          "estimated_diameter_max" : 0.2675413778
        },
        "feet" : {
          "estimated_diameter_min" : 631.7424027221,
          "estimated_diameter_max" : 1412.6189567557
        }
      },
      "is_potentially_hazardous_asteroid" : true,
      "close_approach_data" : [ {
        "close_approach_date" : "2006-06-15",
        "epoch_date_close_approach" : 1150354800000,
        "relative_velocity" : {
          "kilometers_per_second" : "18.8328834399",
          "kilometers_per_hour" : "67798.3803836807",
          "miles_per_hour" : "42127.2769667376"
        },
        "miss_distance" : {
          "astronomical" : "0.1477574735",
          "lunar" : "57.4776573181",
          "kilometers" : "22104204",
          "miles" : "13734915"
        },
        "orbiting_body" : "Earth"
      } ],
      "orbital_data" : {
        "orbit_id" : "39",
        "orbit_determination_date" : "2017-07-13 15:55:06",
        "orbit_uncertainty" : "0",
        "minimum_orbit_intersection" : ".0357698",
        "jupiter_tisserand_invariant" : "5.906",
        "epoch_osculation" : "2458000.5",
        "eccentricity" : ".1069597171974132",
        "semi_major_axis" : "1.00499713063425",
        "inclination" : "33.52410010026813",
        "ascending_node_longitude" : "91.46918576189661",
        "orbital_period" : "367.9981704913307",
        "perihelion_distance" : ".8975029217573987",
        "perihelion_argument" : "256.4985586931706",
        "aphelion_distance" : "1.112491339511101",
        "perihelion_time" : "2458016.493899419939",
        "mean_anomaly" : "344.3537162603537",
        "mean_motion" : ".9782657330044551",
        "equinox" : "J2000"
      }
    } ]
  }
}